[{"OBJECT_NAME":"ONEWEB-0317","OBJECT_ID":"2021-075AE","EPOCH":"2025-08-26T22:15:32.543136","MEAN_MOTION":13.12442452,"ECCENTRICITY":9.303e-5,"INCLINATION":87.8867,"RA_OF_ASC_NODE":49.1333,"ARG_OF_PERICENTER":81.5575,"MEAN_ANOMALY":278.5659,"EPHEMERIS_TYPE":0,"CLASSIFICATION_TYPE":"U","NORAD_CAT_ID":49103,"ELEMENT_SET_NO":999,"REV_AT_EPOCH":19659,"BSTAR":0.0011402292,"MEAN_MOTION_DOT":4.23e-6,"MEAN_MOTION_DDOT":0},{"OBJECT_NAME":"ONEWEB-0318","OBJECT_ID":"2021-075AF","EPOCH":"2025-08-26T21:45:21.199104","MEAN_MOTION":13.18684549,"ECCENTRICITY":0.00020017,"INCLINATION":87.9159,"RA_OF_ASC_NODE":33.8946,"ARG_OF_PERICENTER":97.4981,"MEAN_ANOMALY":262.6379,"EPHEMERIS_TYPE":0,"CLASSIFICATION_TYPE":"U","NORAD_CAT_ID":49104,"ELEMENT_SET_NO":999,"REV_AT_EPOCH":19838,"BSTAR":-7.4659648e-5,"MEAN_MOTION_DOT":-1.7e-7,"MEAN_MOTION_DDOT":0},{"OBJECT_NAME":"ONEWEB-0319","OBJECT_ID":"2021-075AG","EPOCH":"2025-08-26T22:05:52.001664","MEAN_MOTION":13.17647652,"ECCENTRICITY":0.00020596,"INCLINATION":87.9026,"RA_OF_ASC_NODE":64.428,"ARG_OF_PERICENTER":98.5374,"MEAN_ANOMALY":261.5991,"EPHEMERIS_TYPE":0,"CLASSIFICATION_TYPE":"U","NORAD_CAT_ID":49105,"ELEMENT_SET_NO":999,"REV_AT_EPOCH":19485,"BSTAR":-5.4594506e-5,"MEAN_MOTION_DOT":-8.0e-8,"MEAN_MOTION_DDOT":0},{"OBJECT_NAME":"ONEWEB-0323","OBJECT_ID":"2021-075AH","EPOCH":"2025-08-26T22:01:31.072800","MEAN_MOTION":13.12441833,"ECCENTRICITY":0.00022715,"INCLINATION":87.887,"RA_OF_ASC_NODE":49.1215,"ARG_OF_PERICENTER":106.3046,"MEAN_ANOMALY":253.8333,"EPHEMERIS_TYPE":0,"CLASSIFICATION_TYPE":"U","NORAD_CAT_ID":49106,"ELEMENT_SET_NO":999,"REV_AT_EPOCH":19595,"BSTAR":0.00082879033,"MEAN_MOTION_DOT":3.11e-6,"MEAN_MOTION_DDOT":0},{"OBJECT_NAME":"ONEWEB-0329","OBJECT_ID":"2021-075AJ","EPOCH":"2025-08-26T22:18:01.402560","MEAN_MOTION":13.17649509,"ECCENTRICITY":0.00018767,"INCLINATION":87.9022,"RA_OF_ASC_NODE":64.4305,"ARG_OF_PERICENTER":96.2587,"MEAN_ANOMALY":263.8758,"EPHEMERIS_TYPE":0,"CLASSIFICATION_TYPE":"U","NORAD_CAT_ID":49107,"ELEMENT_SET_NO":999,"REV_AT_EPOCH":19483,"BSTAR":-0.00016889113,"MEAN_MOTION_DOT":-5.3e-7,"MEAN_MOTION_DDOT":0},{"OBJECT_NAME":"ONEWEB-0330","OBJECT_ID":"2021-075AK","EPOCH":"2025-08-26T22:19:14.148768","MEAN_MOTION":13.17651679,"ECCENTRICITY":0.0001593,"INCLINATION":87.9026,"RA_OF_ASC_NODE":64.4335,"ARG_OF_PERICENTER":96.2854,"MEAN_ANOMALY":263.8459,"EPHEMERIS_TYPE":0,"CLASSIFICATION_TYPE":"U","NORAD_CAT_ID":49108,"ELEMENT_SET_NO":999,"REV_AT_EPOCH":19487,"BSTAR":7.6850782e-5,"MEAN_MOTION_DOT":4.3e-7,"MEAN_MOTION_DDOT":0},{"OBJECT_NAME":"ONEWEB-0292","OBJECT_ID":"2021-083A","EPOCH":"2025-08-26T21:23:46.448448","MEAN_MOTION":13.13470478,"ECCENTRICITY":0.00019111,"INCLINATION":87.9006,"RA_OF_ASC_NODE":18.7276,"ARG_OF_PERICENTER":99.3855,"MEAN_ANOMALY":260.749,"EPHEMERIS_TYPE":0,"CLASSIFICATION_TYPE":"U","NORAD_CAT_ID":49186,"ELEMENT_SET_NO":999,"REV_AT_EPOCH":19229,"BSTAR":-0.0005392399,"MEAN_MOTION_DOT":-1.84e-6,"MEAN_MOTION_DDOT":0},{"OBJECT_NAME":"ONEWEB-0303","OBJECT_ID":"2021-083B","EPOCH":"2025-08-26T21:40:36.670944","MEAN_MOTION":13.18686131,"ECCENTRICITY":0.00019382,"INCLINATION":87.9158,"RA_OF_ASC_NODE":33.8959,"ARG_OF_PERICENTER":97.119,"MEAN_ANOMALY":263.0162,"EPHEMERIS_TYPE":0,"CLASSIFICATION_TYPE":"U","NORAD_CAT_ID":49187,"ELEMENT_SET_NO":999,"REV_AT_EPOCH":19119,"BSTAR":-8.086441e-6,"MEAN_MOTION_DOT":1.0e-7,"MEAN_MOTION_DDOT":0},{"OBJECT_NAME":"ONEWEB-0306","OBJECT_ID":"2021-083C","EPOCH":"2025-08-26T21:26:21.571008","MEAN_MOTION":13.18686265,"ECCENTRICITY":0.0001572,"INCLINATION":87.9159,"RA_OF_ASC_NODE":33.8834,"ARG_OF_PERICENTER":90.3642,"MEAN_ANOMALY":269.7671,"EPHEMERIS_TYPE":0,"CLASSIFICATION_TYPE":"U","NORAD_CAT_ID":49188,"ELEMENT_SET_NO":999,"REV_AT_EPOCH":19123,"BSTAR":-2.6258296e-5,"MEAN_MOTION_DOT":3.0e-8,"MEAN_MOTION_DDOT":0},{"OBJECT_NAME":"ONEWEB-0307","OBJECT_ID":"2021-083D","EPOCH":"2025-08-26T21:15:13.705056","MEAN_MOTION":13.13471719,"ECCENTRICITY":0.00014326,"INCLINATION":87.8993,"RA_OF_ASC_NODE":18.7286,"ARG_OF_PERICENTER":102.2476,"MEAN_ANOMALY":257.8814,"EPHEMERIS_TYPE":0,"CLASSIFICATION_TYPE":"U","NORAD_CAT_ID":49189,"ELEMENT_SET_NO":999,"REV_AT_EPOCH":19229,"BSTAR":-0.00080421088,"MEAN_MOTION_DOT":-2.81e-6,"MEAN_MOTION_DDOT":0},{"OBJECT_NAME":"ONEWEB-0320","OBJECT_ID":"2021-083E","EPOCH":"2025-08-26T21:35:49.687296","MEAN_MOTION":13.18685604,"ECCENTRICITY":0.00017838,"INCLINATION":87.9158,"RA_OF_ASC_NODE":33.9104,"ARG_OF_PERICENTER":94.8398,"MEAN_ANOMALY":265.2937,"EPHEMERIS_TYPE":0,"CLASSIFICATION_TYPE":"U","NORAD_CAT_ID":49190,"ELEMENT_SET_NO":999,"REV_AT_EPOCH":19119,"BSTAR":-0.00064407949,"MEAN_MOTION_DOT":-2.41e-6,"MEAN_MOTION_DDOT":0},{"OBJECT_NAME":"ONEWEB-0321","OBJECT_ID":"2021-083F","EPOCH":"2025-08-26T19:26:26.966976","MEAN_MOTION":13.2076994,"ECCENTRICITY":0.00015811,"INCLINATION":87.929,"RA_OF_ASC_NODE":333.106,"ARG_OF_PERICENTER":95.2027,"MEAN_ANOMALY":264.9287,"EPHEMERIS_TYPE":0,"CLASSIFICATION_TYPE":"U","NORAD_CAT_ID":49191,"ELEMENT_SET_NO":999,"REV_AT_EPOCH":19797,"BSTAR":-0.00010357226,"MEAN_MOTION_DOT":-2.9e-7,"MEAN_MOTION_DDOT":0},{"OBJECT_NAME":"ONEWEB-0322","OBJECT_ID":"2021-083G","EPOCH":"2025-08-26T21:09:09.588672","MEAN_MOTION":13.13470649,"ECCENTRICITY":0.00014153,"INCLINATION":87.9008,"RA_OF_ASC_NODE":18.7237,"ARG_OF_PERICENTER":89.5158,"MEAN_ANOMALY":270.6133,"EPHEMERIS_TYPE":0,"CLASSIFICATION_TYPE":"U","NORAD_CAT_ID":49192,"ELEMENT_SET_NO":999,"REV_AT_EPOCH":19228,"BSTAR":-0.00088262481,"MEAN_MOTION_DOT":-3.1e-6,"MEAN_MOTION_DDOT":0},{"OBJECT_NAME":"ONEWEB-0324","OBJECT_ID":"2021-083H","EPOCH":"2025-08-26T21:16:49.709280","MEAN_MOTION":13.18687463,"ECCENTRICITY":0.00016766,"INCLINATION":87.9159,"RA_OF_ASC_NODE":33.8926,"ARG_OF_PERICENTER":98.7142,"MEAN_ANOMALY":261.418,"EPHEMERIS_TYPE":0,"CLASSIFICATION_TYPE":"U","NORAD_CAT_ID":49193,"ELEMENT_SET_NO":999,"REV_AT_EPOCH":19121,"BSTAR":-8.9130998e-5,"MEAN_MOTION_DOT":-2.2e-7,"MEAN_MOTION_DDOT":0},{"OBJECT_NAME":"ONEWEB-0325","OBJECT_ID":"2021-083J","EPOCH":"2025-08-26T21:21:36.181440","MEAN_MOTION":13.18686069,"ECCENTRICITY":0.0001732,"INCLINATION":87.916,"RA_OF_ASC_NODE":33.9093,"ARG_OF_PERICENTER":91.2348,"MEAN_ANOMALY":268.8983,"EPHEMERIS_TYPE":0,"CLASSIFICATION_TYPE":"U","NORAD_CAT_ID":49194,"ELEMENT_SET_NO":999,"REV_AT_EPOCH":19122,"BSTAR":-6.3565054e-5,"MEAN_MOTION_DOT":-1.2e-7,"MEAN_MOTION_DDOT":0},{"OBJECT_NAME":"ONEWEB-0326","OBJECT_ID":"2021-083K","EPOCH":"2025-08-26T21:43:10.754112","MEAN_MOTION":13.18688568,"ECCENTRICITY":0.00021249,"INCLINATION":87.9155,"RA_OF_ASC_NODE":33.8948,"ARG_OF_PERICENTER":95.9469,"MEAN_ANOMALY":264.1905,"EPHEMERIS_TYPE":0,"CLASSIFICATION_TYPE":"U","NORAD_CAT_ID":49195,"ELEMENT_SET_NO":999,"REV_AT_EPOCH":19121,"BSTAR":4.4614804e-5,"MEAN_MOTION_DOT":3.1e-7,"MEAN_MOTION_DDOT":0},{"OBJECT_NAME":"ONEWEB-0327","OBJECT_ID":"2021-083L","EPOCH":"2025-08-26T21:42:45.293760","MEAN_MOTION":13.18687937,"ECCENTRICITY":0.00020967,"INCLINATION":87.9153,"RA_OF_ASC_NODE":33.9225,"ARG_OF_PERICENTER":95.0669,"MEAN_ANOMALY":265.0703,"EPHEMERIS_TYPE":0,"CLASSIFICATION_TYPE":"U","NORAD_CAT_ID":49196,"ELEMENT_SET_NO":999,"REV_AT_EPOCH":19123,"BSTAR":5.4087167e-5,"MEAN_MOTION_DOT":3.4e-7,"MEAN_MOTION_DDOT":0}]
